[
  {
    "id": 1,
    "street_address": "70948 Iowa Place",
    "city": "Abilene",
    "state": "TX",
    "postal_code": "79699"
  },
  {
    "id": 2,
    "street_address": "58 Superior Terrace",
    "city": "Young America",
    "state": "MN",
    "postal_code": "55551"
  },
  {
    "id": 3,
    "street_address": "10 Dixon Road",
    "city": "West Palm Beach",
    "state": "FL",
    "postal_code": "33411"
  },
  {
    "id": 4,
    "street_address": "4314 7th Point",
    "city": "Pasadena",
    "state": "CA",
    "postal_code": "91186"
  },
  {
    "id": 5,
    "street_address": "7 Melody Street",
    "city": "Tampa",
    "state": "FL",
    "postal_code": "33673"
  },
  {
    "id": 6,
    "street_address": "0 Waubesa Street",
    "city": "Saint Paul",
    "state": "MN",
    "postal_code": "55127"
  },
  {
    "id": 7,
    "street_address": "38280 Westport Road",
    "city": "Houston",
    "state": "TX",
    "postal_code": "77255"
  },
  {
    "id": 8,
    "street_address": "2251 Blackbird Pass",
    "city": "Modesto",
    "state": "CA",
    "postal_code": "95354"
  },
  {
    "id": 9,
    "street_address": "9751 Nobel Park",
    "city": "Sacramento",
    "state": "CA",
    "postal_code": "95833"
  },
  {
    "id": 10,
    "street_address": "45 Merry Hill",
    "city": "Denver",
    "state": "CO",
    "postal_code": "80204"
  },
  {
    "id": 11,
    "street_address": "14 Heath Drive",
    "city": "Bridgeport",
    "state": "CT",
    "postal_code": "06673"
  },
  {
    "id": 12,
    "street_address": "569 Hallows Plaza",
    "city": "Rockville",
    "state": "MD",
    "postal_code": "20851"
  },
  {
    "id": 13,
    "street_address": "06 Kensington Lane",
    "city": "Anderson",
    "state": "IN",
    "postal_code": "46015"
  },
  {
    "id": 14,
    "street_address": "049 Hauk Road",
    "city": "Houston",
    "state": "TX",
    "postal_code": "77090"
  },
  {
    "id": 15,
    "street_address": "972 Nobel Hill",
    "city": "San Francisco",
    "state": "CA",
    "postal_code": "94126"
  },
  {
    "id": 16,
    "street_address": "44 Lindbergh Road",
    "city": "West Palm Beach",
    "state": "FL",
    "postal_code": "33421"
  },
  {
    "id": 17,
    "street_address": "172 Forest Run Crossing",
    "city": "New York City",
    "state": "NY",
    "postal_code": "10160"
  },
  {
    "id": 18,
    "street_address": "6956 Blackbird Lane",
    "city": "Springfield",
    "state": "MA",
    "postal_code": "01114"
  },
  {
    "id": 19,
    "street_address": "709 Reinke Road",
    "city": "Kansas City",
    "state": "MO",
    "postal_code": "64136"
  },
  {
    "id": 20,
    "street_address": "313 3rd Circle",
    "city": "Columbus",
    "state": "OH",
    "postal_code": "43215"
  },
  {
    "id": 21,
    "street_address": "666 Eliot Place",
    "city": "Huntington",
    "state": "WV",
    "postal_code": "25709"
  },
  {
    "id": 22,
    "street_address": "7 Forest Run Point",
    "city": "Providence",
    "state": "RI",
    "postal_code": "02912"
  },
  {
    "id": 23,
    "street_address": "37198 Reindahl Alley",
    "city": "New Haven",
    "state": "CT",
    "postal_code": "06533"
  },
  {
    "id": 24,
    "street_address": "377 Declaration Court",
    "city": "Dallas",
    "state": "TX",
    "postal_code": "75265"
  },
  {
    "id": 25,
    "street_address": "663 Scofield Park",
    "city": "Arlington",
    "state": "VA",
    "postal_code": "22217"
  },
  {
    "id": 26,
    "street_address": "86148 Dayton Alley",
    "city": "Des Moines",
    "state": "IA",
    "postal_code": "50330"
  },
  {
    "id": 27,
    "street_address": "49 Fieldstone Street",
    "city": "El Paso",
    "state": "TX",
    "postal_code": "88525"
  },
  {
    "id": 28,
    "street_address": "96581 Karstens Avenue",
    "city": "Huntington",
    "state": "WV",
    "postal_code": "25775"
  },
  {
    "id": 29,
    "street_address": "63591 Sunnyside Street",
    "city": "Sacramento",
    "state": "CA",
    "postal_code": "94237"
  },
  {
    "id": 30,
    "street_address": "84 Northport Plaza",
    "city": "Scranton",
    "state": "PA",
    "postal_code": "18514"
  },
  {
    "id": 31,
    "street_address": "4 Bashford Street",
    "city": "New York City",
    "state": "NY",
    "postal_code": "10105"
  },
  {
    "id": 32,
    "street_address": "33 Blaine Point",
    "city": "Atlanta",
    "state": "GA",
    "postal_code": "30301"
  },
  {
    "id": 33,
    "street_address": "029 Pawling Road",
    "city": "Oklahoma City",
    "state": "OK",
    "postal_code": "73167"
  },
  {
    "id": 34,
    "street_address": "54756 Cottonwood Trail",
    "city": "Savannah",
    "state": "GA",
    "postal_code": "31405"
  },
  {
    "id": 35,
    "street_address": "95925 Golf Course Drive",
    "city": "Oklahoma City",
    "state": "OK",
    "postal_code": "73129"
  },
  {
    "id": 36,
    "street_address": "54 Clyde Gallagher Trail",
    "city": "Atlanta",
    "state": "GA",
    "postal_code": "30380"
  },
  {
    "id": 37,
    "street_address": "59 Loftsgordon Crossing",
    "city": "Kansas City",
    "state": "MO",
    "postal_code": "64136"
  },
  {
    "id": 38,
    "street_address": "8 Sheridan Hill",
    "city": "Charlotte",
    "state": "NC",
    "postal_code": "28220"
  },
  {
    "id": 39,
    "street_address": "01859 Menomonie Street",
    "city": "Saint Louis",
    "state": "MO",
    "postal_code": "63143"
  },
  {
    "id": 40,
    "street_address": "826 Katie Avenue",
    "city": "Melbourne",
    "state": "FL",
    "postal_code": "32919"
  },
  {
    "id": 41,
    "street_address": "190 Charing Cross Park",
    "city": "Billings",
    "state": "MT",
    "postal_code": "59112"
  },
  {
    "id": 42,
    "street_address": "3 Fisk Alley",
    "city": "Cedar Rapids",
    "state": "IA",
    "postal_code": "52405"
  },
  {
    "id": 43,
    "street_address": "5 Spaight Place",
    "city": "Minneapolis",
    "state": "MN",
    "postal_code": "55436"
  },
  {
    "id": 44,
    "street_address": "3 Briar Crest Lane",
    "city": "Minneapolis",
    "state": "MN",
    "postal_code": "55470"
  },
  {
    "id": 45,
    "street_address": "1 Mccormick Hill",
    "city": "Washington",
    "state": "DC",
    "postal_code": "20535"
  },
  {
    "id": 46,
    "street_address": "375 Prentice Hill",
    "city": "Springfield",
    "state": "IL",
    "postal_code": "62756"
  },
  {
    "id": 47,
    "street_address": "352 North Street",
    "city": "Dayton",
    "state": "OH",
    "postal_code": "45440"
  },
  {
    "id": 48,
    "street_address": "6 Victoria Road",
    "city": "Baltimore",
    "state": "MD",
    "postal_code": "21211"
  },
  {
    "id": 49,
    "street_address": "16 Anthes Avenue",
    "city": "Crawfordsville",
    "state": "IN",
    "postal_code": "47937"
  },
  {
    "id": 50,
    "street_address": "45519 Melody Street",
    "city": "Des Moines",
    "state": "IA",
    "postal_code": "50362"
  }
]
